[{"OBJECT_NAME":"ZY-1 02D","OBJECT_ID":"2019-059A","EPOCH":"2026-03-09T22:47:25.027872","MEAN_MOTION":14.35449537,"ECCENTRICITY":0.00025574,"INCLINATION":98.3302,"RA_OF_ASC_NODE":133.9003,"ARG_OF_PERICENTER":74.5944,"MEAN_ANOMALY":285.5525,"EPHEMERIS_TYPE":0,"CLASSIFICATION_TYPE":"U","NORAD_CAT_ID":44528,"ELEMENT_SET_NO":999,"REV_AT_EPOCH":34010,"BSTAR":2.8589968e-5,"MEAN_MOTION_DOT":4.0e-7,"MEAN_MOTION_DDOT":0},{"OBJECT_NAME":"COSMOS 990","OBJECT_ID":"1978-019A","EPOCH":"2026-03-09T22:10:34.278240","MEAN_MOTION":14.37213765,"ECCENTRICITY":0.00168386,"INCLINATION":74.0411,"RA_OF_ASC_NODE":333.5985,"ARG_OF_PERICENTER":326.9999,"MEAN_ANOMALY":33.0103,"EPHEMERIS_TYPE":0,"CLASSIFICATION_TYPE":"U","NORAD_CAT_ID":10676,"ELEMENT_SET_NO":999,"REV_AT_EPOCH":51576,"BSTAR":7.906452e-5,"MEAN_MOTION_DOT":2.09e-6,"MEAN_MOTION_DDOT":0}]
